{
  "type": "FeatureCollection",
  "features": [
    {
      "type": "Feature",
      "properties": {
        "norad_id": 24946,
        "name": "IRIDIUM 33",
        "group": "iridium-33-debris",
        "lat": -19.681180188526028,
        "lon": 61.26306242001651,
        "alt_km": 786.2107554180693,
        "timestamp": "2025-12-26T05:31:12.891325+00:00",
        "meta_object_name": "IRIDIUM 33",
        "meta_object_id": "1997-051C",
        "meta_epoch": "2025-12-25T06:11:00.134016",
        "meta_mean_motion": 14.35045823,
        "meta_eccentricity": 0.0008508,
        "meta_inclination": 86.3857,
        "meta_ra_of_asc_node": 62.9667,
        "meta_arg_of_pericenter": 159.9967,
        "meta_mean_anomaly": 200.1564,
        "meta_ephemeris_type": 0,
        "meta_classification_type": "U",
        "meta_norad_cat_id": 24946,
        "meta_element_set_no": 999,
        "meta_rev_at_epoch": 48014,
        "meta_bstar": 0.00011524,
        "meta_mean_motion_dot": 3.48e-06,
        "meta_mean_motion_ddot": 0,
        "tle_line1": "1 24946U 97051C   25359.25764044  .00000348  00000+0  11524-3 0  9993",
        "tle_line2": "2 24946  86.3857  62.9667 0008508 159.9967 200.1564 14.35045823480147"
      },
      "geometry": {
        "type": "Point",
        "coordinates": [
          61.26306242001651,
          -19.681180188526028
        ]
      }
    },
    {
      "type": "Feature",
      "properties": {
        "norad_id": 33773,
        "name": "IRIDIUM 33 DEB",
        "group": "iridium-33-debris",
        "lat": -23.724759508457954,
        "lon": 53.2867060557352,
        "alt_km": 759.4662531961394,
        "timestamp": "2025-12-26T05:31:12.891356+00:00",
        "meta_object_name": "IRIDIUM 33 DEB",
        "meta_object_id": "1997-051L",
        "meta_epoch": "2025-12-25T14:39:17.561952",
        "meta_mean_motion": 14.43283203,
        "meta_eccentricity": 0.0013294,
        "meta_inclination": 86.3997,
        "meta_ra_of_asc_node": 55.1348,
        "meta_arg_of_pericenter": 109.508,
        "meta_mean_anomaly": 250.7558,
        "meta_ephemeris_type": 0,
        "meta_classification_type": "U",
        "meta_norad_cat_id": 33773,
        "meta_element_set_no": 999,
        "meta_rev_at_epoch": 88533,
        "meta_bstar": 0.0002966,
        "meta_mean_motion_dot": 1.019e-05,
        "meta_mean_motion_ddot": 0,
        "tle_line1": "1 33773U 97051L   25359.61061993  .00001019  00000+0  29660-3 0  9990",
        "tle_line2": "2 33773  86.3997  55.1348 0013294 109.5080 250.7558 14.43283203885334"
      },
      "geometry": {
        "type": "Point",
        "coordinates": [
          53.2867060557352,
          -23.724759508457954
        ]
      }
    },
    {
      "type": "Feature",
      "properties": {
        "norad_id": 33775,
        "name": "IRIDIUM 33 DEB",
        "group": "iridium-33-debris",
        "lat": -26.912692355803543,
        "lon": 41.94287815328502,
        "alt_km": 767.9124609496648,
        "timestamp": "2025-12-26T05:31:12.891372+00:00",
        "meta_object_name": "IRIDIUM 33 DEB",
        "meta_object_id": "1997-051N",
        "meta_epoch": "2025-12-25T15:15:04.201056",
        "meta_mean_motion": 14.41495203,
        "meta_eccentricity": 0.0015345,
        "meta_inclination": 86.3624,
        "meta_ra_of_asc_node": 44.0472,
        "meta_arg_of_pericenter": 116.415,
        "meta_mean_anomaly": 13.4748,
        "meta_ephemeris_type": 0,
        "meta_classification_type": "U",
        "meta_norad_cat_id": 33775,
        "meta_element_set_no": 999,
        "meta_rev_at_epoch": 88326,
        "meta_bstar": 0.00032187,
        "meta_mean_motion_dot": 1.066e-05,
        "meta_mean_motion_ddot": 0,
        "tle_line1": "1 33775U 97051N   25359.63546529  .00001066  00000+0  32187-3 0  9997",
        "tle_line2": "2 33775  86.3624  44.0472 0015345 116.4150  13.4748 14.41495203883260"
      },
      "geometry": {
        "type": "Point",
        "coordinates": [
          41.94287815328502,
          -26.912692355803543
        ]
      }
    },
    {
      "type": "Feature",
      "properties": {
        "norad_id": 33776,
        "name": "IRIDIUM 33 DEB",
        "group": "iridium-33-debris",
        "lat": 45.626935277604,
        "lon": 78.79682193894043,
        "alt_km": 762.6977748447462,
        "timestamp": "2025-12-26T05:31:12.891385+00:00",
        "meta_object_name": "IRIDIUM 33 DEB",
        "meta_object_id": "1997-051P",
        "meta_epoch": "2025-12-25T18:12:32.556960",
        "meta_mean_motion": 14.38256901,
        "meta_eccentricity": 0.00157767,
        "meta_inclination": 86.4031,
        "meta_ra_of_asc_node": 75.3085,
        "meta_arg_of_pericenter": 149.2329,
        "meta_mean_anomaly": 338.0492,
        "meta_ephemeris_type": 0,
        "meta_classification_type": "U",
        "meta_norad_cat_id": 33776,
        "meta_element_set_no": 999,
        "meta_rev_at_epoch": 88269,
        "meta_bstar": 0.00026708408,
        "meta_mean_motion_dot": 8.32e-06,
        "meta_mean_motion_ddot": 0,
        "tle_line1": "1 33776U 97051P   25359.75871015  .00000832  00000+0  26708-3 0  9994",
        "tle_line2": "2 33776  86.4031  75.3085 0015776 149.2329 338.0492 14.38256901882695"
      },
      "geometry": {
        "type": "Point",
        "coordinates": [
          78.79682193894043,
          45.626935277604
        ]
      }
    },
    {
      "type": "Feature",
      "properties": {
        "norad_id": 33777,
        "name": "IRIDIUM 33 DEB",
        "group": "iridium-33-debris",
        "lat": -41.814456470238156,
        "lon": 26.08474191471612,
        "alt_km": 716.3753523244068,
        "timestamp": "2025-12-26T05:31:12.891398+00:00",
        "meta_object_name": "IRIDIUM 33 DEB",
        "meta_object_id": "1997-051Q",
        "meta_epoch": "2025-12-25T19:48:50.912064",
        "meta_mean_motion": 14.55702308,
        "meta_eccentricity": 0.00064056,
        "meta_inclination": 86.3774,
        "meta_ra_of_asc_node": 29.5095,
        "meta_arg_of_pericenter": 194.4339,
        "meta_mean_anomaly": 165.6687,
        "meta_ephemeris_type": 0,
        "meta_classification_type": "U",
        "meta_norad_cat_id": 33777,
        "meta_element_set_no": 999,
        "meta_rev_at_epoch": 88724,
        "meta_bstar": 0.00084106436,
        "meta_mean_motion_dot": 3.697e-05,
        "meta_mean_motion_ddot": 0,
        "tle_line1": "1 33777U 97051Q   25359.82558926  .00003697  00000+0  84106-3 0  9994",
        "tle_line2": "2 33777  86.3774  29.5095 0006405 194.4339 165.6687 14.55702308887245"
      },
      "geometry": {
        "type": "Point",
        "coordinates": [
          26.08474191471612,
          -41.814456470238156
        ]
      }
    },
    {
      "type": "Feature",
      "properties": {
        "norad_id": 33850,
        "name": "IRIDIUM 33 DEB",
        "group": "iridium-33-debris",
        "lat": -13.083582696039132,
        "lon": 23.52611822379542,
        "alt_km": 762.4587620870407,
        "timestamp": "2025-12-26T05:31:12.891410+00:00",
        "meta_object_name": "IRIDIUM 33 DEB",
        "meta_object_id": "1997-051T",
        "meta_epoch": "2025-12-25T13:32:16.366848",
        "meta_mean_motion": 14.42178357,
        "meta_eccentricity": 0.0013303,
        "meta_inclination": 86.3408,
        "meta_ra_of_asc_node": 24.6646,
        "meta_arg_of_pericenter": 122.9915,
        "meta_mean_anomaly": 8.9113,
        "meta_ephemeris_type": 0,
        "meta_classification_type": "U",
        "meta_norad_cat_id": 33850,
        "meta_element_set_no": 999,
        "meta_rev_at_epoch": 88337,
        "meta_bstar": 0.00042851,
        "meta_mean_motion_dot": 1.431e-05,
        "meta_mean_motion_ddot": 0,
        "tle_line1": "1 33850U 97051T   25359.56407832  .00001431  00000+0  42851-3 0  9991",
        "tle_line2": "2 33850  86.3408  24.6646 0013303 122.9915   8.9113 14.42178357883370"
      },
      "geometry": {
        "type": "Point",
        "coordinates": [
          23.52611822379542,
          -13.083582696039132
        ]
      }
    },
    {
      "type": "Feature",
      "properties": {
        "norad_id": 33853,
        "name": "IRIDIUM 33 DEB",
        "group": "iridium-33-debris",
        "lat": 78.92197442568667,
        "lon": 4.834114874378189,
        "alt_km": 949.7565460510441,
        "timestamp": "2025-12-26T05:31:12.891422+00:00",
        "meta_object_name": "IRIDIUM 33 DEB",
        "meta_object_id": "1997-051W",
        "meta_epoch": "2025-12-25T22:21:09.286272",
        "meta_mean_motion": 13.99124294,
        "meta_eccentricity": 0.02078177,
        "meta_inclination": 85.9999,
        "meta_ra_of_asc_node": 344.0258,
        "meta_arg_of_pericenter": 195.1397,
        "meta_mean_anomaly": 183.3683,
        "meta_ephemeris_type": 0,
        "meta_classification_type": "U",
        "meta_norad_cat_id": 33853,
        "meta_element_set_no": 999,
        "meta_rev_at_epoch": 85530,
        "meta_bstar": 0.0011388599,
        "meta_mean_motion_dot": 2.002e-05,
        "meta_mean_motion_ddot": 0,
        "tle_line1": "1 33853U 97051W   25359.93135748  .00002002  00000+0  11389-2 0  9995",
        "tle_line2": "2 33853  85.9999 344.0258 0207817 195.1397 183.3683 13.99124294855306"
      },
      "geometry": {
        "type": "Point",
        "coordinates": [
          4.834114874378189,
          78.92197442568667
        ]
      }
    }
  ]
}